UNKNOWN                 
1 87320U 71015    25155.34239136  .00001333  00000+0  86562-3 0  9992
2 87320  66.5924 180.4448 0422235 178.3421 181.9167 13.69264465567532
UNKNOWN                 
1 87334U          25156.58071147  .00015586  00000+0  10460-1 0  9993
2 87334  89.9968 271.6262 0084103 127.7810 233.1024 13.98927047360008
UNKNOWN                 
1 87335U          25156.30461130  .00015885  00000+0  10451-1 0  9991
2 87335  89.9774 268.2544 0092723 105.6300 255.5135 13.99657627360281
UNKNOWN                 
1 87405U 81053    25156.45931326  .00001616  00000+0  11635-2 0  9994
2 87405  82.7518 210.0323 0061868 152.7679 207.6756 13.95345373584614
UNKNOWN                 
1 87426U          25156.35355782  .00004434  00000+0  18022-2 0  9993
2 87426  65.7834 129.6954 0057050  23.2066 126.0539 14.27628349595397
UNKNOWN                 
1 87448U 70025    25156.44458207  .00001527  00000+0  12638-2 0  9994
2 87448 100.4618 339.5023 0062961 337.1504  22.6851 13.89943768582798
UNKNOWN                 
1 87456U 76126    25153.94762398  .00008431  00000+0  13650-2 0  9998
2 87456  65.7821 241.0547 0513128 105.6488 260.1809 14.10243820584284
UNKNOWN                 
1 87517U 76126    25155.86818580  .00002968  00000+0  91052-3 0  9996
2 87517  65.7913 336.9368 0667375  38.4180  24.5349 13.59481357566951
UNKNOWN                 
1 87541U 70025    25156.39360740  .00000156  00000+0  38693-3 0  9993
2 87541  99.7280  19.6653 0059787   3.9809 173.7520 13.35490541556621
UNKNOWN                 
1 87553U 76126    25156.22037314  .00002695  00000+0  83293-3 0  9990
2 87553  65.6694  96.4264 0706068 311.3880  42.8480 13.52218831565486
UNKNOWN                 
1 87557U 73086    25154.99484483  .00005058  00000+0  11440-1 0  9990
2 87557 101.7237 346.0850 0075462  87.2223 273.7524 13.25962984539601
UNKNOWN                 
1 87561U 76077    25151.43532023 -.00000060  00000+0 -11630-3 0  9991
2 87561 102.0326 214.1683 0173332 290.7687  82.4564 12.32158962518389
UNKNOWN                 
1 87565U 99025    25153.76490996  .00001770  00000+0  98307-3 0  9996
2 87565  99.9299 126.8045 0173218 333.6997  25.5449 14.05359317589322
UNKNOWN                 
1 87569U 99025    25154.74658657 -.00000011  00000+0  19497-3 0  9990
2 87569 101.9805 324.7921 0055252 270.0643 108.4876 12.68533630534126
UNKNOWN                 
1 87587U 93036    25155.11499990  .00000287  00000+0  99597-4 0  9995
2 87587  74.0242  97.2046 0020603 183.3964 176.7055 14.39938782606220
UNKNOWN                 
1 87590U 99025    25155.07182286  .00000663  00000+0  39871-3 0  9991
2 87590  98.8067 196.3356 0028404 105.6138 284.4879 14.10036542127237
UNKNOWN                 
1 87616U 76067    25152.46829103  .00000718  00000+0  25364-2 0  9999
2 87616  66.0342 170.6004 0642479 222.3240 294.2787 12.46647171512013
UNKNOWN                 
1 87624U 99025    25156.53451677  .00003351  00000+0  55669-3 0  9994
2 87624  98.6692  82.5876 0103878 121.0112 240.1343 14.67350915552369
UNKNOWN                 
1 87650U          25153.09046121  .00017754  00000+0  39671-2 0  9996
2 87650 100.2653 283.1248 0037169 127.5320 232.9259 14.56401051 51532
UNKNOWN                 
1 87672U 93016    25156.14591683  .00001717  00000+0  71485-3 0  9998
2 87672  70.8561  58.0409 0059381 205.3981 154.4227 14.26821349597263
UNKNOWN                 
1 87681U          25155.49450208  .00001063  00000+0  11583-2 0  9999
2 87681  66.7354 191.5152 0167072 287.1068  71.1761 13.70679345575625
UNKNOWN                 
1 87690U 76126    25155.34660632  .00003577  00000+0  55987-3 0  9998
2 87690  65.7920 130.4613 0590099 146.3134 217.6958 13.97911842580605
UNKNOWN                 
1 87706U          25155.25910753  .00004179  00000+0  76583-3 0  9990
2 87706  98.6710 328.9604 0109537 139.9112  35.5197 14.62526352550516
UNKNOWN                 
1 87725U 81053    25156.17721981  .00027058  00000+0  34416-2 0  9992
2 87725  82.8716  67.0423 0016409 350.4306   9.6594 14.81377846605605
UNKNOWN                 
1 87730U          25151.93456877  .00000104  00000+0  93978-4 0  9992
2 87730  82.9461  18.2531 0029738 184.2564 175.8344 13.74471049558578
UNKNOWN                 
1 87737U 99025    25152.40332731  .00000029  00000+0  75728-4 0  9998
2 87737  99.4049  28.1549 0132951 336.5497  22.9624 13.72304687577203
UNKNOWN                 
1 87764U 76126    25155.75144513  .00008823  00000+0  15000-2 0  9990
2 87764  65.6751 326.4449 0384029 176.0009 207.4004 14.30906416591764
UNKNOWN                 
1 87771U 75052    25153.34037158  .00000096  00000+0  34450-3 0  9999
2 87771 100.7554 345.2107 0120369  80.6765 280.7936 13.19460352509585
UNKNOWN                 
1 87782U 73086    25153.80573938  .00004321  00000+0  14632-1 0  9991
2 87782 102.3339   0.4720 0034179 263.2721  96.4484 12.99312303542925
UNKNOWN                 
1 87843U 70025    25156.10368035  .00001352  00000+0  31651-2 0  9997
2 87843  99.6756 286.3714 0243048  93.3336 269.5612 13.15723880539087
UNKNOWN                 
1 87845U          25153.20107136  .00001459  00000+0  28120-2 0  9991
2 87845  98.8299 148.9917 0575823 339.6217  18.2729 12.88382693540287
UNKNOWN                 
1 87878U          25155.04034270  .00004343  00000+0  14066-2 0  9998
2 87878  99.1463 261.5474 0038094 110.1033 250.4258 14.39130709583711
UNKNOWN                 
1 87884U 99025    25155.06007464  .00000184  00000+0  12505-3 0  9993
2 87884  98.7235 265.7616 0153196 247.4259 111.0638 14.05828499591434
UNKNOWN                 
1 87898U 99025    25156.29268880  .00057500  00000+0  56048-2 0  9998
2 87898  98.8688  94.1134 0053052  26.7538 333.6395 14.91152430602096
UNKNOWN                 
1 87934U          25156.03020715  .00000079  00000+0  68805-4 0  9994
2 87934  82.9366  80.6543 0030143 204.5851 165.7128 13.73075926578147
UNKNOWN                 
1 87991U 77065    25153.86288925  .00001159  00000+0  21180-2 0  9992
2 87991  28.6257 349.9568 0904945 163.4662 199.7489 12.34660593499142
UNKNOWN                 
1 89003U          25153.34224133  .00000323  00000+0  11985-3 0  9992
2 89003  74.0474   9.4440 0015056 117.5419 242.7266 14.36044371603780
UNKNOWN                 
1 89005U          25156.02134149  .00002206  00000+0  52128-3 0  9995
2 89005  97.8528 359.5436 0193536 257.9351 100.0096 14.44312620506551
UNKNOWN                 
1 89029U          25155.43086219  .00003348  00000+0  33355-3 0  9998
2 89029  98.0671  50.1238 0022333 234.0879 125.8267 14.92141574622533
UNKNOWN                 
1 89067U          25156.31759806  .00116297  25753-5  76939-3 0  9998
2 89067  80.9441 104.1639 0172029  54.3689 307.3444 15.57769088558131
UNKNOWN                 
1 89101U          25156.05235290  .00000343  00000+0  11506-2 0  9998
2 89101 100.4446  99.0294 0146898 172.7223 187.6062 13.03969279538727
UNKNOWN                 
1 89132U          25154.57201499  .00001472  00000+0  19053-2 0  9990
2 89132  63.4359 273.3608 2942036 319.6558  21.8926  8.86008064308084
UNKNOWN                 
1 89146U          25156.24047173  .00003265  00000+0  63168-3 0  9997
2 89146  98.2378  85.5075 0094947 291.4756  67.6341 14.61210994601049
UNKNOWN                 
1 89161U          25155.84454960  .00038463  00000+0  18172-2 0  9997
2 89161  97.6736 166.6717 0059075  15.3355 344.9651 15.17736112519479
UNKNOWN                 
1 89172U 81053    25156.39523800  .00007420  00000+0  12801-2 0  9999
2 89172  82.0666  39.6753 0308412 143.7672 218.4850 14.41623886574432
UNKNOWN                 
1 89177U          25156.41187624  .00000078  00000+0  67519-4 0  9990
2 89177  82.9224  50.2451 0031530 314.1751  45.6813 13.73693074 36696
UNKNOWN                 
1 89183U          25156.20476267  .00000512  00000+0  49141-3 0  9991
2 89183  99.2217  71.7011 0130210 304.2287  54.6586 13.81324842580666
UNKNOWN                 
1 89184U          25154.40356143  .00027741  00000+0  43440-2 0  9990
2 89184  98.4068  11.7078 0013578  29.3551 330.8416 14.72605960463806
UNKNOWN                 
1 89213U          25154.49353981  .00000548  00000+0  37947-3 0  9991
2 89213  98.8062  37.5205 0227337 294.1781  63.5765 13.91351122425939
UNKNOWN                 
1 89218U          25128.54994719  .00003217  00000+0  27735-2 0  9992
2 89218 100.3372  62.2420 0099650 230.0298 129.2071 13.85152494104846
UNKNOWN                 
1 89251U          25156.41394398  .00009317  00000+0  54400-2 0  9999
2 89251  62.4692 250.7663 2864124  83.1144 308.2984  9.19216131355643
UNKNOWN                 
1 89261U          25156.46456849  .00000921  00000+0  28895-3 0  9997
2 89261  98.1449 159.1759 0013566  23.2867 336.8936 14.42668855506377
UNKNOWN                 
1 89304U          25155.72286060  .00004010  00000+0  87963-2 0  9992
2 89304  84.5206 153.2860 2788658 228.7730 332.6050  8.97494042421215
UNKNOWN                 
1 89314U          25156.33200778  .00002486  00000+0  47182-2 0  9997
2 89314  19.0391 270.0455 6976738  95.9512 340.5994  2.59551657 83897
UNKNOWN                 
1 89349U          25156.56140929  .00000560  00000+0  19339-2 0  9995
2 89349  90.2423   3.0867 0032125  48.3822 312.0042 12.96172073454114
UNKNOWN                 
1 89379U          25154.21637798  .00003026  00000+0  40359-2 0  9999
2 89379 100.4847 155.4402 0037833 234.6957 125.0640 13.61021287554578
UNKNOWN                 
1 89395U          25155.41129399  .00000150  00000+0  21542-2 0  9991
2 89395 102.3370 134.5633 0227103  90.5639  62.3148 12.01459316501769
UNKNOWN                 
1 89403U          25156.34241058  .00000067  00000+0  20283-3 0  9990
2 89403  90.2435   1.5001 0030786   9.3496 175.5649 12.98296296453116
UNKNOWN                 
1 89484U          25155.10338135  .00022536  00000+0  41681-1 0  9993
2 89484  84.2895 207.4416 2786528 274.4739  54.6963  9.02984548338072
